{
  "norad_id": 60138,
  "name": "STARLINK-32025",
  "history": [
    {
      "epoch": "2026-03-28T17:19:14.052288Z",
      "apogee_km": 476.09005698073906,
      "perigee_km": 474.3915158301561,
      "latitude_deg": -3.123630030499986e-05,
      "longitude_deg": 145.31645913453792,
      "height_km": 476.19928184409764,
      "semi_major_axis_km": 6853.377786405447,
      "eccentricity": 0.00012392,
      "inclination_deg": 53.1609,
      "raan_deg": 231.2631,
      "arg_perigee_deg": 94.07,
      "mean_anomaly_deg": 266.0442,
      "mean_motion_rev_day": 15.30191387
    },
    {
      "epoch": "2026-03-29T02:43:33.985056Z",
      "apogee_km": 476.100983898973,
      "perigee_km": 474.4328653837156,
      "latitude_deg": -1.0899047561278175e-05,
      "longitude_deg": 2.027049361297029,
      "height_km": 476.1881931864226,
      "semi_major_axis_km": 6853.403924641344,
      "eccentricity": 0.0001217,
      "inclination_deg": 53.1609,
      "raan_deg": 229.443,
      "arg_perigee_deg": 91.5822,
      "mean_anomaly_deg": 268.5318,
      "mean_motion_rev_day": 15.30182633
    },
    {
      "epoch": "2026-03-29T02:43:33.985920Z",
      "apogee_km": 476.1008468308937,
      "perigee_km": 474.433002451794,
      "latitude_deg": 7.147104369823297e-05,
      "longitude_deg": 2.0271071185981633,
      "height_km": 476.1881775012581,
      "semi_major_axis_km": 6853.403924641344,
      "eccentricity": 0.00012168,
      "inclination_deg": 53.1609,
      "raan_deg": 229.443,
      "arg_perigee_deg": 91.5822,
      "mean_anomaly_deg": 268.5319,
      "mean_motion_rev_day": 15.30182633
    },
    {
      "epoch": "2026-03-30T13:12:44.555616Z",
      "apogee_km": 476.06406747154233,
      "perigee_km": 474.48586376410094,
      "latitude_deg": -2.3175369672717856e-06,
      "longitude_deg": -163.35628792512946,
      "height_km": 476.09744554608454,
      "semi_major_axis_km": 6853.411965617822,
      "eccentricity": 0.00011514,
      "inclination_deg": 53.1605,
      "raan_deg": 222.77,
      "arg_perigee_deg": 84.4869,
      "mean_anomaly_deg": 275.6263,
      "mean_motion_rev_day": 15.3017994
    },
    {
      "epoch": "2026-03-30T17:54:53.699904Z",
      "apogee_km": 476.0335263778734,
      "perigee_km": 474.4680755363779,
      "latitude_deg": 5.7053456613143045e-05,
      "longitude_deg": 125.0017288757512,
      "height_km": 476.096874865764,
      "semi_major_axis_km": 6853.387800957125,
      "eccentricity": 0.00011421,
      "inclination_deg": 53.1605,
      "raan_deg": 221.8592,
      "arg_perigee_deg": 86.1746,
      "mean_anomaly_deg": 273.9386,
      "mean_motion_rev_day": 15.30188033
    },
    {
      "epoch": "2026-03-31T01:45:09.922464Z",
      "apogee_km": 476.1448978614808,
      "perigee_km": 474.5103465490847,
      "latitude_deg": 5.7904714621937844e-05,
      "longitude_deg": 5.596947271436294,
      "height_km": 476.57597485519545,
      "semi_major_axis_km": 6853.4646222052825,
      "eccentricity": 0.00011925,
      "inclination_deg": 53.1602,
      "raan_deg": 220.3439,
      "arg_perigee_deg": 115.3586,
      "mean_anomaly_deg": 244.7539,
      "mean_motion_rev_day": 15.30162305
    },
    {
      "epoch": "2026-04-01T01:15:57.727872Z",
      "apogee_km": 475.94885692645676,
      "perigee_km": 474.49430010175274,
      "latitude_deg": 6.34920861161226e-05,
      "longitude_deg": 7.382007533544201,
      "height_km": 476.47229450783783,
      "semi_major_axis_km": 6853.358578514104,
      "eccentricity": 0.00010612,
      "inclination_deg": 53.1603,
      "raan_deg": 215.7938,
      "arg_perigee_deg": 118.9616,
      "mean_anomaly_deg": 241.1492,
      "mean_motion_rev_day": 15.3019782
    }
  ]
}